GLOBALSTAR M001         
1 25162U 98008A   24297.77967919 -.00000035  00000+0  47558-3 0  9990
2 25162  52.0036 301.3025 0001693 105.9495  65.0910 12.38197402214421
GLOBALSTAR M004         
1 25163U 98008B   24297.52838939 -.00000089  00000+0  83310-4 0  9999
2 25163  52.0012  56.1279 0003760 122.4384 318.2272 12.63375982231770
GLOBALSTAR M002         
1 25164U 98008C   24297.85132366 -.00000083  00000+0 -13755-3 0  9997
2 25164  51.9985 112.7728 0002405  83.2483 276.8611 11.61504826156607
GLOBALSTAR M003         
1 25165U 98008D   24297.96361492  .00000029  00000+0  12625-2 0  9996
2 25165  51.9931 102.7495 0008332 172.9086   0.1729 12.12046817204575
GLOBALSTAR M014         
1 25306U 98023A   24297.57488219 -.00000047  00000+0  56467-3 0  9998
2 25306  51.9866  41.6648 0000316 247.5788 126.1726 11.65473291163580
GLOBALSTAR M006         
1 25307U 98023B   24297.72681862 -.00000060  00000+0  32051-3 0  9993
2 25307  51.9928  84.9151 0004149  51.3856 321.7759 11.58168798189430
GLOBALSTAR M015         
1 25308U 98023C   24297.91763301 -.00000082  00000+0 -18993-3 0  9998
2 25308  51.9799 172.0881 0013166  19.5420  46.6025 11.48853686166922
GLOBALSTAR M008         
1 25309U 98023D   24297.95964939 -.00000051  00000+0  35792-3 0  9994
2 25309  51.9949 162.9321 0003380  48.5488  56.0706 12.36052835208631
